NORAD_CAT_ID,OBJECT_NAME,OBJECT_TYPE,EPOCH,MEAN_MOTION,ECCENTRICITY,INCLINATION,RA_OF_ASC_NODE,ARG_OF_PERICENTER,MEAN_ANOMALY,BSTAR,MEAN_MOTION_DOT,MEAN_MOTION_DDOT,TLE_LINE0,TLE_LINE1,TLE_LINE2,SEMIMAJOR_AXIS,PERIOD,APOGEE,PERIGEE,DECAYED
53914.0,STARLINK-5040,PAYLOAD,2023-05-25 20:06:39,15.08841576,0.0001217,53.2144,207.8697,64.6675,295.4443,0.00014015,1.943e-05,0.0,0 STARLINK-5040,1 53914U 22119AE  23145.83796017  .00001943  00000-0  14015-3 0  9994,2 53914  53.2144 207.8697 0001217  64.6675 295.4443 15.08841576 38015,6917.876,95.437,540.582,538.899,0.0
53914.0,STARLINK-5040,PAYLOAD,2023-05-25 23:17:25,15.08844028,0.0001044,53.2144,207.2765,65.3158,294.7943,0.0001615,2.284e-05,0.0,0 STARLINK-5040,1 53914U 22119AE  23145.97043860  .00002284  00000-0  16150-3 0  9991,2 53914  53.2144 207.2765 0001044  65.3158 294.7943 15.08844028 37614,6917.868,95.437,540.455,539.011,0.0
53914.0,STARLINK-5040,PAYLOAD,2023-05-26 10:25:07,15.08847358,0.0001062,53.2142,205.1929,70.8395,289.2712,0.00020277,2.941e-05,0.0,0 STARLINK-5040,1 53914U 22119AE  23146.43411694  .00002941  00000-0  20277-3 0  9992,2 53914  53.2142 205.1929 0001062  70.8395 289.2712 15.08847358 38102,6917.858,95.437,540.458,538.988,0.0
53914.0,STARLINK-5040,PAYLOAD,2023-05-26 19:57:26,15.08846225,0.0001218,53.2141,203.4093,60.1717,299.9396,0.00014583,2.034e-05,0.0,0 STARLINK-5040,1 53914U 22119AE  23146.83155734  .00002034  00000-0  14583-3 0  9992,2 53914  53.2141 203.4093 0001218  60.1717 299.9396 15.08846225 38161,6917.861,95.437,540.569,538.884,0.0
53914.0,STARLINK-5040,PAYLOAD,2023-05-27 10:15:54,15.08840328,0.0001005,53.2145,200.7321,90.1754,269.9354,6.6956e-05,7.78e-06,0.0,0 STARLINK-5040,1 53914U 22119AE  23147.42771884  .00000778  00000-0  66956-4 0  9993,2 53914  53.2145 200.7321 0001005  90.1754 269.9354 15.08840328 37839,6917.879,95.438,540.44,539.049,0.0
53914.0,STARLINK-5040,PAYLOAD,2023-05-27 18:12:50,15.08841927,9.34e-05,53.2147,199.245,86.2103,273.8996,6.3079e-05,7.16e-06,0.0,0 STARLINK-5040,1 53914U 22119AE  23147.75891814  .00000716  00000-0  63079-4 0  9990,2 53914  53.2147 199.2450 0000934  86.2103 273.8996 15.08841927 38305,6917.874,95.437,540.386,539.093,0.0
53914.0,STARLINK-5040,PAYLOAD,2023-05-28 18:03:37,15.08838264,0.0001035,53.2159,194.7851,91.3137,268.7973,3.4993e-05,2.69e-06,0.0,0 STARLINK-5040,1 53914U 22119AE  23148.75252243  .00000269  00000-0  34993-4 0  9994,2 53914  53.2159 194.7851 0001035  91.3137 268.7973 15.08838264 38038,6917.886,95.438,540.467,539.035,0.0
53914.0,STARLINK-5040,PAYLOAD,2023-05-28 19:39:01,15.08837504,0.0001035,53.2161,194.4876,91.0559,269.0552,3.0729e-05,2.01e-06,0.0,0 STARLINK-5040,1 53914U 22119AE  23148.81876294  .00000201  00000-0  30729-4 0  9998,2 53914  53.2161 194.4876 0001035  91.0559 269.0552 15.08837504 38460,6917.888,95.438,540.469,539.037,0.0
53914.0,STARLINK-5040,PAYLOAD,2023-05-29 14:43:38,15.08844004,9.57e-05,53.2155,190.9184,86.4758,273.6344,0.00012128,1.643e-05,0.0,0 STARLINK-5040,1 53914U 22119AE  23149.61363704  .00001643  00000-0  12128-3 0  9997,2 53914  53.2155 190.9184 0000957  86.4758 273.6344 15.08844004 38583,6917.868,95.437,540.395,539.071,0.0
53914.0,STARLINK-5040,PAYLOAD,2023-05-29 19:29:48,15.08836392,8.67e-05,53.2151,190.0244,71.8283,288.2804,4.6979e-05,4.6e-06,0.0,0 STARLINK-5040,1 53914U 22119AE  23149.81236340  .00000460  00000-0  46979-4 0  9992,2 53914  53.2151 190.0244 0000867  71.8283 288.2804 15.08836392 38616,6917.891,95.438,540.356,539.157,0.0
53914.0,STARLINK-5040,PAYLOAD,2023-05-30 03:26:44,15.08830542,9.15e-05,53.215,188.5374,81.8514,278.2582,3.068e-05,2e-06,0.0,0 STARLINK-5040,1 53914U 22119AE  23150.14356857  .00000200  00000-0  30680-4 0  9990,2 53914  53.2150 188.5374 0000915  81.8514 278.2582 15.08830542 38245,6917.909,95.438,540.407,539.141,0.0
53914.0,STARLINK-5040,PAYLOAD,2023-05-30 14:34:25,15.08839325,9.02e-05,53.2149,186.4576,84.5933,275.5161,5.3202e-05,5.59e-06,0.0,0 STARLINK-5040,1 53914U 22119AE  23150.60724337  .00000559  00000-0  53202-4 0  9995,2 53914  53.2149 186.4576 0000902  84.5933 275.5161 15.08839325 38730,6917.882,95.438,540.371,539.123,0.0
53914.0,STARLINK-5040,PAYLOAD,2023-05-30 16:09:49,15.08837467,9.07e-05,53.2148,186.1603,88.8233,271.2863,4.7715e-05,4.72e-06,0.0,0 STARLINK-5040,1 53914U 22119AE  23150.67348465  .00000472  00000-0  47715-4 0  9992,2 53914  53.2148 186.1603 0000907  88.8233 271.2863 15.08837467 38324,6917.888,95.438,540.381,539.126,0.0
53914.0,STARLINK-5040,PAYLOAD,2023-05-30 19:20:35,15.08838258,8.31e-05,53.2145,185.5655,91.7064,268.4023,4.4457e-05,4.2e-06,0.0,0 STARLINK-5040,1 53914U 22119AE  23150.80596404  .00000420  00000-0  44457-4 0  9998,2 53914  53.2145 185.5655 0000831  91.7064 268.4023 15.08838258 38765,6917.886,95.438,540.326,539.176,0.0
53914.0,STARLINK-5040,PAYLOAD,2023-05-31 14:25:12,15.08846835,9.41e-05,53.2148,181.9943,75.512,284.5976,5.3427e-05,5.63e-06,0.0,0 STARLINK-5040,1 53914U 22119AE  23151.60083852  .00000563  00000-0  53427-4 0  9990,2 53914  53.2148 181.9943 0000941  75.5120 284.5976 15.08846835 38882,6917.859,95.437,540.375,539.074,0.0
53914.0,STARLINK-5040,PAYLOAD,2023-05-31 19:11:22,15.08837803,8.37e-05,53.2143,181.1059,103.3567,256.7519,6.0603e-05,6.77e-06,0.0,0 STARLINK-5040,1 53914U 22119AE  23151.79956360  .00000677  00000-0  60603-4 0  9993,2 53914  53.2143 181.1059 0000837 103.3567 256.7519 15.08837803 38919,6917.887,95.438,540.331,539.173,0.0
53914.0,STARLINK-5040,PAYLOAD,2023-06-01 01:32:54,15.08836771,8.11e-05,53.2143,179.9162,86.7174,273.3911,8.6313e-05,1.086e-05,0.0,0 STARLINK-5040,1 53914U 22119AE  23152.06452398  .00001086  00000-0  86313-4 0  9997,2 53914  53.2143 179.9162 0000811  86.7174 273.3911 15.08836771 38531,6917.89,95.438,540.316,539.194,0.0
53914.0,STARLINK-5040,PAYLOAD,2023-06-01 09:29:50,15.08841404,0.0001005,53.2156,178.4289,85.4623,274.6484,8.408e-05,1.051e-05,0.0,0 STARLINK-5040,1 53914U 22119AE  23152.39572232  .00001051  00000-0  84080-4 0  9994,2 53914  53.2156 178.4289 0001005  85.4623 274.6484 15.08841404 39001,6917.876,95.437,540.436,539.046,0.0
53914.0,STARLINK-5040,PAYLOAD,2023-06-02 07:45:14,15.08841963,9.98e-05,53.2153,174.2662,81.929,278.1815,3.0491e-05,1.98e-06,0.0,0 STARLINK-5040,1 53914U 22119AE  23153.32308368  .00000198  00000-0  30491-4 0  9993,2 53914  53.2153 174.2662 0000998  81.9290 278.1815 15.08841963 38723,6917.874,95.437,540.43,539.049,0.0
53914.0,STARLINK-5040,PAYLOAD,2023-06-02 14:06:46,15.08845172,9.58e-05,53.2148,173.0765,80.825,279.2851,4.8619e-05,4.86e-06,0.0,0 STARLINK-5040,1 53914U 22119AE  23153.58804083  .00000486  00000-0  48619-4 0  9997,2 53914  53.2148 173.0765 0000958  80.8250 279.2851 15.08845172 39187,6917.865,95.437,540.392,539.067,0.0
53914.0,STARLINK-5040,PAYLOAD,2023-06-02 18:52:56,15.08840296,9.76e-05,53.2153,172.1844,85.8266,274.2838,2.4315e-05,9.9e-07,0.0,0 STARLINK-5040,1 53914U 22119AE  23153.78676425  .00000099  00000-0  24315-4 0  9993,2 53914  53.2153 172.1844 0000976  85.8266 274.2838 15.08840296 39219,6917.879,95.438,540.42,539.069,0.0
53914.0,STARLINK-5040,PAYLOAD,2023-06-03 07:36:01,15.08842424,0.0001009,53.2157,169.8053,82.2818,277.8289,4.3866e-05,4.1e-06,0.0,0 STARLINK-5040,1 53914U 22119AE  23154.31668269  .00000410  00000-0  43866-4 0  9999,2 53914  53.2157 169.8053 0001009  82.2818 277.8289 15.08842424 39292,6917.873,95.437,540.436,539.04,0.0
53914.0,STARLINK-5040,PAYLOAD,2023-06-04 01:05:16,15.08835405,9.87e-05,53.2151,166.5341,84.3307,275.7797,3.5611e-05,2.79e-06,0.0,0 STARLINK-5040,1 53914U 22119AE  23155.04532746  .00000279  00000-0  35611-4 0  9992,2 53914  53.2151 166.5341 0000987  84.3307 275.7797 15.08835405 38987,6917.894,95.438,540.442,539.077,0.0
53914.0,STARLINK-5040,PAYLOAD,2023-06-04 10:37:35,15.08837278,0.0001002,53.2151,164.7497,84.3387,275.7719,2.3577e-05,8.7e-07,0.0,0 STARLINK-5040,1 53914U 22119AE  23155.44276713  .00000087  00000-0  23577-4 0  9990,2 53914  53.2151 164.7497 0001002  84.3387 275.7719 15.08837278 39464,6917.889,95.438,540.447,539.061,0.0
53914.0,STARLINK-5040,PAYLOAD,2023-06-05 04:06:49,15.08839509,0.0001021,53.2154,161.4791,86.5032,273.6077,5.3543e-05,5.64e-06,0.0,0 STARLINK-5040,1 53914U 22119AE  23156.17140537  .00000564  00000-0  53543-4 0  9991,2 53914  53.2154 161.4791 0001021  86.5032 273.6077 15.08839509 39159,6917.882,95.438,540.453,539.041,0.0
53914.0,STARLINK-5040,PAYLOAD,2023-06-05 10:28:21,15.08841493,0.0001047,53.2154,160.2899,86.3707,273.7405,7.4932e-05,9.05e-06,0.0,0 STARLINK-5040,1 53914U 22119AE  23156.43636344  .00000905  00000-0  74932-4 0  9990,2 53914  53.2154 160.2899 0001047  86.3707 273.7405 15.08841493 39612,6917.876,95.437,540.465,539.017,0.0
53914.0,STARLINK-5040,PAYLOAD,2023-06-05 16:49:54,15.08836261,0.0001033,53.2152,159.1002,82.8489,277.262,3.8332e-05,3.22e-06,0.0,0 STARLINK-5040,1 53914U 22119AE  23156.70132839  .00000322  00000-0  38332-4 0  9997,2 53914  53.2152 159.1002 0001033  82.8489 277.2620 15.08836261 39655,6917.892,95.438,540.471,539.042,0.0
53914.0,STARLINK-5040,PAYLOAD,2023-06-06 00:46:50,15.08833459,0.000105,53.2152,157.6133,83.7334,276.3778,3.3501e-05,2.45e-06,0.0,0 STARLINK-5040,1 53914U 22119AE  23157.03253110  .00000245  00000-0  33501-4 0  9997,2 53914  53.2152 157.6133 0001050  83.7334 276.3778 15.08833459 39280,6917.9,95.438,540.492,539.039,0.0
53914.0,STARLINK-5040,PAYLOAD,2023-06-06 08:43:46,15.08835348,0.0001065,53.2153,156.1266,83.3396,276.7717,4.3111e-05,3.98e-06,0.0,0 STARLINK-5040,1 53914U 22119AE  23157.36373070  .00000398  00000-0  43111-4 0  9998,2 53914  53.2153 156.1266 0001065  83.3396 276.7717 15.08835348 39750,6917.895,95.438,540.496,539.023,0.0
53914.0,STARLINK-5040,PAYLOAD,2023-06-07 08:34:33,15.08839202,0.0001083,53.2155,151.6661,85.7988,274.3127,2.2445e-05,6.9e-07,0.0,0 STARLINK-5040,1 53914U 22119AE  23158.35733099  .00000069  00000-0  22445-4 0  9991,2 53914  53.2155 151.6661 0001083  85.7988 274.3127 15.08839202 39486,6917.883,95.438,540.497,538.999,0.0
